ONEWEB-0574             
1 56063U 23043T   23356.59191311 -.00000018  00000+0 -74303-4 0  9992
2 56063  87.9241  64.6566 0002011 107.6930 252.4423 13.21826391 38375
ONEWEB-0575             
1 56064U 23043U   23356.60093313  .00001009  00000+0  26054-2 0  9995
2 56064  87.9066  49.4112 0001217  87.2937 272.8334 13.16594035 39544
ONEWEB-0576             
1 56065U 23043V   23356.58196968  .00003489  00000+0  90909-2 0  9997
2 56065  87.9061  49.4168 0001868  86.8492 273.2852 13.16583424 39533
ONEWEB-0577             
1 56066U 23043W   23356.58829125  .00002119  00000+0  55087-2 0  9993
2 56066  87.9065  49.4133 0000915  43.6351 316.4852 13.16591485 39566
ONEWEB-0578             
1 56067U 23043X   23356.57930009 -.00000017  00000+0 -73200-4 0  9993
2 56067  87.9237  64.6528 0001864  98.3586 261.7759 13.21825292 38330
ONEWEB-0579             
1 56068U 23043Y   23356.56983652  .00000039  00000+0  63627-4 0  9999
2 56068  87.9242  64.6568 0001823 119.8235 240.3081 13.21826205 38343
ONEWEB-0581             
1 56069U 23043Z   23356.59462282 -.00000493  00000+0 -13224-2 0  9996
2 56069  87.9068  49.4417 0000790  83.7741 276.3480 13.16603848 39531
ONEWEB-0609             
1 56070U 23043AA  23356.28742256  .00000260  00000+0  65580-3 0  9999
2 56070  87.8982  79.9520 0001826 108.5802 251.5527 13.15547677 37064
